#aV2022  6 19  0  0  0.00000000     288 DD+AD WGS84 FIT  NGA
## 2215      0.00000000   300.00000000 59749 0.0000000000000
+   32     1  2  3  4  5  6  7  8  9 10 11 12 13 14 15 16 17
+         18 19 20 21 22 23 24 25 26 27 28 29 30 31 32  0  0
+          0  0  0  0  0  0  0  0  0  0  0  0  0  0  0  0  0
+          0  0  0  0  0  0  0  0  0  0  0  0  0  0  0  0  0
+          0  0  0  0  0  0  0  0  0  0  0  0  0  0  0  0  0
++         2  2  2  2  2  2  2  2  2  2  2  2  2  2  2  2  2
++         2  2  2  2  2  2  2  2  2  2  2  2  2  2  2  0  0
++         0  0  0  0  0  0  0  0  0  0  0  0  0  0  0  0  0
++         0  0  0  0  0  0  0  0  0  0  0  0  0  0  0  0  0
++         0  0  0  0  0  0  0  0  0  0  0  0  0  0  0  0  0
%c cc cc ccc ccc cccc cccc cccc cccc ccccc ccccc ccccc ccccc
%c cc cc ccc ccc cccc cccc cccc cccc ccccc ccccc ccccc ccccc
%f  0.0000000  0.000000000  0.00000000000  0.000000000000000
%f  0.0000000  0.000000000  0.00000000000  0.000000000000000
%i    0    0    0    0      0      0      0      0         0
%i    0    0    0    0      0      0      0      0         0
/*      NGA, ST. LOUIS,MO.                                  
/*   EPHEMERIS COMPUTED FROM 2 DAYS OF DATA                 
/*   EPOCHA v7 SMOOTHER                                     
/*   G2139 IERS2010 SATIGS SATAPC                           
*  2022  6 19 23 45  0.00000000
P  1 -13680.159113  22474.308821  -2041.999613    337.813790                    
V  1  -3100.779189    596.094534  32441.203692     -0.078001                    
P  2  18152.488249  -9289.983941 -16452.358069   -652.508484                    
V  2  -9105.977366  20180.722886 -20486.409147      0.004117                    
P  3 -12209.681231  12786.184440 -19897.817953   -283.794871                    
V  3 -24903.939572  -2574.969216  13816.774390     -0.115626                    
P  4  -4933.252768  19059.747243 -17774.851263   -155.211802                    
V  4 -10929.520734 -19880.225327 -18359.593371      0.041464                    
P  5  24109.396654  -6088.153745   9371.604841    -86.148749                    
V  5  12045.934724   2678.525768 -28585.373244     -0.013753                    
P  6  12920.473340   6923.063902 -22093.062794    350.659015                    
V  6 -15574.640109  23407.946295  -1692.511656      0.156848                    
P  7  -1079.481049  21572.836840  15526.395309    321.479702                    
V  7 -12682.284537  14638.523634 -22292.076352     -0.006185                    
P  8 -10492.838802  11800.107744  21264.214903    -72.855577                    
V  8 -13320.203977 -23667.707581   6893.722870     -0.015367                    
P  9   4371.974188  24090.748815 -10318.952455   -326.847590                    
V  9  -8415.261917 -10300.824199 -27820.223866      0.034402                    
P 10 -18474.702503 -11612.040550  15493.525019   -461.477948                    
V 10  19314.482916   -349.668114  22699.081040     -0.145984                    
P 11  19409.173964  -6316.957644 -16987.132973    -14.000436                    
V 11 -11465.570827  18346.434878 -19948.643272      0.023152                    
P 12  16280.752469 -10555.758270 -18357.230059   -233.760126                    
V 12  22402.481753   4376.097766  17715.183634     -0.058666                    
P 13  15225.224333  -1320.809831  21585.599863    333.101097                    
V 13   8659.689128  26345.934153  -4292.185947      0.070231                    
P 14  16805.981779  13056.982355  15951.683387   -111.735079                    
V 14 -20339.063958     25.997232  21310.819953     -0.004745                    
P 15   9317.869729 -13455.202891  20452.258139    -51.895576                    
V 15  16013.317091  21887.350606   7273.879165      0.030156                    
P 16 -26297.757337   -589.306571   4879.198203   -510.134646                    
V 16  -6062.719039  -3093.022641 -30846.805780     -0.026275                    
P 17  13410.605152  22105.901336  -5514.978691    627.097471                    
V 17    835.863647   7855.846225  31147.000332      0.046326                    
P 18   2344.971250 -21621.333375  15156.493936    137.297980                    
V 18  12489.032946 -14815.690104 -23162.625566     -0.108871                    
P 19  16067.885229  16351.698955 -13861.418847    172.944307                    
V 19   4484.942813  16523.708082  24943.835192      0.050229                    
P 20  26320.907060   -934.564328  -2252.205120    510.003308                    
V 20  -2532.407468   3805.561237 -31349.561067     -0.031362                    
P 21 -17209.873617  17771.789458   9281.838397    161.310193                    
V 21   2755.954042 -11180.610165  29141.203928     -0.000167                    
P 22 -16750.228315 -14007.441725 -14826.407105    278.626152                    
V 22  -5332.402438 -18863.839146  23023.276051      0.063473                    
P 23  -7615.200901 -14576.341918  20868.952915    -28.920331                    
V 23  26480.776213    139.168054   9649.340763     -0.020082                    
P 24  14358.454378 -21870.438791   2704.598755    216.889089                    
V 24   1661.522608   5316.389912  31160.862701     -0.086753                    
P 25    961.839315 -15408.500541 -21898.124074    339.426637                    
V 25  27093.965432   1587.586558    341.252607      0.046163                    
P 26 -25656.881526  -4537.296389  -6037.279251    213.390688                    
V 26   7527.540464  -3105.672584 -29779.100761      0.023422                    
P 27 -16732.554189  -2354.715890  20375.287875    216.820519                    
V 27 -11087.112114 -23774.465674 -11348.378493      0.028740                    
P 28  22780.636890  10064.266129   9395.117443    335.069361                    
V 28 -11509.148487    652.692204  28999.630824     -0.074268                    
P 29  -2853.851715 -24472.711775  -9876.441085   -525.705724                    
V 29   6568.177237  10777.687876 -28825.896212     -0.036864                    
P 30   7433.282375  15546.407522  20239.898631   -531.874815                    
V 30 -15563.807959  20442.389755 -10283.838775     -0.010909                    
P 31 -15285.775954  -4585.742971 -21420.151554   -182.489374                    
V 31  15067.180417 -22225.147588  -5573.241806     -0.015164                    
P 32 -16117.464757 -19731.523127  -7693.534678   -155.441041                    
V 32  -2188.973161 -10020.769367  29526.515637     -0.094508                    
EOF
